{
  "type": "FeatureCollection",
  "features": [
    {
      "type": "Feature",
      "properties": {
        "norad_id": 19071,
        "name": "OSCAR 32",
        "group": "nnss",
        "lat": 17.595922242335046,
        "lon": -163.07876669440867,
        "alt_km": 1022.3151144151916,
        "timestamp": "2025-12-22T05:49:03.768073+00:00",
        "meta_object_name": "OSCAR 32",
        "meta_object_id": "1988-033B",
        "meta_epoch": "2025-12-21T19:01:45.302016",
        "meta_mean_motion": 13.27955349,
        "meta_eccentricity": 0.0189028,
        "meta_inclination": 90.3209,
        "meta_ra_of_asc_node": 16.8054,
        "meta_arg_of_pericenter": 141.7111,
        "meta_mean_anomaly": 32.0527,
        "meta_ephemeris_type": 0,
        "meta_classification_type": "U",
        "meta_norad_cat_id": 19071,
        "meta_element_set_no": 999,
        "meta_rev_at_epoch": 82385,
        "meta_bstar": 0.00015275,
        "meta_mean_motion_dot": 8.6e-07,
        "meta_mean_motion_ddot": 0,
        "tle_line1": "1 19071U 88033B   25355.79288544  .00000086  00000+0  15275-3 0  9993",
        "tle_line2": "2 19071  90.3209  16.8054 0189028 141.7111  32.0527 13.27955349823854"
      },
      "geometry": {
        "type": "Point",
        "coordinates": [
          -163.07876669440867,
          17.595922242335046
        ]
      }
    },
    {
      "type": "Feature",
      "properties": {
        "norad_id": 19223,
        "name": "NOVA 2",
        "group": "nnss",
        "lat": -7.317341011575251,
        "lon": -101.73769243831926,
        "alt_km": 1198.9354833399539,
        "timestamp": "2025-12-22T05:49:03.768084+00:00",
        "meta_object_name": "NOVA 2",
        "meta_object_id": "1988-052A",
        "meta_epoch": "2025-12-21T16:47:58.494048",
        "meta_mean_motion": 13.22936781,
        "meta_eccentricity": 0.0029831,
        "meta_inclination": 89.9868,
        "meta_ra_of_asc_node": 78.2613,
        "meta_arg_of_pericenter": 352.1473,
        "meta_mean_anomaly": 133.3245,
        "meta_ephemeris_type": 0,
        "meta_classification_type": "U",
        "meta_norad_cat_id": 19223,
        "meta_element_set_no": 999,
        "meta_rev_at_epoch": 81066,
        "meta_bstar": 0.00012945,
        "meta_mean_motion_dot": 6.3e-07,
        "meta_mean_motion_ddot": 0,
        "tle_line1": "1 19223U 88052A   25355.69998257  .00000063  00000+0  12945-3 0  9997",
        "tle_line2": "2 19223  89.9868  78.2613 0029831 352.1473 133.3245 13.22936781810666"
      },
      "geometry": {
        "type": "Point",
        "coordinates": [
          -101.73769243831926,
          -7.317341011575251
        ]
      }
    },
    {
      "type": "Feature",
      "properties": {
        "norad_id": 19419,
        "name": "OSCAR 25",
        "group": "nnss",
        "lat": -36.14073064644597,
        "lon": -159.74954670977746,
        "alt_km": 1034.8859496028308,
        "timestamp": "2025-12-22T05:49:03.768094+00:00",
        "meta_object_name": "OSCAR 25",
        "meta_object_id": "1988-074A",
        "meta_epoch": "2025-12-21T20:39:59.584320",
        "meta_mean_motion": 13.42625,
        "meta_eccentricity": 0.009496,
        "meta_inclination": 90.0337,
        "meta_ra_of_asc_node": 20.2738,
        "meta_arg_of_pericenter": 219.4473,
        "meta_mean_anomaly": 314.7401,
        "meta_ephemeris_type": 0,
        "meta_classification_type": "U",
        "meta_norad_cat_id": 19419,
        "meta_element_set_no": 999,
        "meta_rev_at_epoch": 82762,
        "meta_bstar": 0.00014504,
        "meta_mean_motion_dot": 9.3e-07,
        "meta_mean_motion_ddot": 0,
        "tle_line1": "1 19419U 88074A   25355.86110630  .00000093  00000+0  14504-3 0  9994",
        "tle_line2": "2 19419  90.0337  20.2738 0094960 219.4473 314.7401 13.42625000827626"
      },
      "geometry": {
        "type": "Point",
        "coordinates": [
          -159.74954670977746,
          -36.14073064644597
        ]
      }
    },
    {
      "type": "Feature",
      "properties": {
        "norad_id": 19420,
        "name": "OSCAR 31",
        "group": "nnss",
        "lat": 82.42724638947384,
        "lon": -159.10770197389624,
        "alt_km": 1121.1935258540962,
        "timestamp": "2025-12-22T05:49:03.768105+00:00",
        "meta_object_name": "OSCAR 31",
        "meta_object_id": "1988-074B",
        "meta_epoch": "2025-12-21T19:27:49.261248",
        "meta_mean_motion": 13.42586164,
        "meta_eccentricity": 0.009333,
        "meta_inclination": 90.0353,
        "meta_ra_of_asc_node": 20.6251,
        "meta_arg_of_pericenter": 213.7287,
        "meta_mean_anomaly": 320.8577,
        "meta_ephemeris_type": 0,
        "meta_classification_type": "U",
        "meta_norad_cat_id": 19420,
        "meta_element_set_no": 999,
        "meta_rev_at_epoch": 82772,
        "meta_bstar": 0.00013752,
        "meta_mean_motion_dot": 8.9e-07,
        "meta_mean_motion_ddot": 0,
        "tle_line1": "1 19420U 88074B   25355.81098682  .00000089  00000+0  13752-3 0  9992",
        "tle_line2": "2 19420  90.0353  20.6251 0093330 213.7287 320.8577 13.42586164827720"
      },
      "geometry": {
        "type": "Point",
        "coordinates": [
          -159.10770197389624,
          82.42724638947384
        ]
      }
    }
  ]
}